{
  "norad_id": 64841,
  "name": "LEMUR-2-KARENDARRELL",
  "history": [
    {
      "epoch": "2026-03-28T20:14:01.032864",
      "apogee_km": 576.1786436588545,
      "perigee_km": 564.7929083230274,
      "latitude_deg": -56.352672303099844,
      "longitude_deg": 25.03448096010834,
      "semi_major_axis_km": 6948.622775990941,
      "eccentricity": 0.00081928,
      "inclination_deg": 97.7585,
      "raan_deg": 204.2769,
      "arg_perigee_deg": 134.9296,
      "mean_anomaly_deg": 225.2593,
      "mean_motion_rev_day": 14.98837874
    }
  ]
}